{
  "type": "FeatureCollection",
  "features": [
    {
      "type": "Feature",
      "properties": {
        "norad_id": 34497,
        "name": "IRIDIUM 33 DEB",
        "group": "iridium-33-debris",
        "lat": -60.12105245562109,
        "lon": 40.25214473655345,
        "alt_km": 751.4144758693083,
        "timestamp": "2025-12-25T22:42:17.398394+00:00",
        "meta_object_name": "IRIDIUM 33 DEB",
        "meta_object_id": "1997-051GN",
        "meta_epoch": "2025-12-22T21:33:03.136608",
        "meta_mean_motion": 14.27482363,
        "meta_eccentricity": 0.00780484,
        "meta_inclination": 86.2769,
        "meta_ra_of_asc_node": 48.0617,
        "meta_arg_of_pericenter": 306.2683,
        "meta_mean_anomaly": 179.2919,
        "meta_ephemeris_type": 0,
        "meta_classification_type": "U",
        "meta_norad_cat_id": 34497,
        "meta_element_set_no": 999,
        "meta_rev_at_epoch": 87028,
        "meta_bstar": 0.00056228088,
        "meta_mean_motion_dot": 1.443e-05,
        "meta_mean_motion_ddot": 0,
        "tle_line1": "1 34497U 97051GN  25356.89795297  .00001443  00000+0  56228-3 0  9993",
        "tle_line2": "2 34497  86.2769  48.0617 0078048 306.2683 179.2919 14.27482363870281"
      },
      "geometry": {
        "type": "Point",
        "coordinates": [
          40.25214473655345,
          -60.12105245562109
        ]
      }
    },
    {
      "type": "Feature",
      "properties": {
        "norad_id": 34508,
        "name": "IRIDIUM 33 DEB",
        "group": "iridium-33-debris",
        "lat": -79.99818978059973,
        "lon": -61.85882487929163,
        "alt_km": 801.2616329422472,
        "timestamp": "2025-12-25T22:42:17.398404+00:00",
        "meta_object_name": "IRIDIUM 33 DEB",
        "meta_object_id": "1997-051GZ",
        "meta_epoch": "2025-12-25T16:29:37.440096",
        "meta_mean_motion": 14.38522284,
        "meta_eccentricity": 0.0066677,
        "meta_inclination": 86.3701,
        "meta_ra_of_asc_node": 97.1541,
        "meta_arg_of_pericenter": 131.4809,
        "meta_mean_anomaly": 229.2141,
        "meta_ephemeris_type": 0,
        "meta_classification_type": "U",
        "meta_norad_cat_id": 34508,
        "meta_element_set_no": 999,
        "meta_rev_at_epoch": 87495,
        "meta_bstar": 0.0012254,
        "meta_mean_motion_dot": 3.862e-05,
        "meta_mean_motion_ddot": 0,
        "tle_line1": "1 34508U 97051GZ  25359.68723889  .00003862  00000+0  12254-2 0  9991",
        "tle_line2": "2 34508  86.3701  97.1541 0066677 131.4809 229.2141 14.38522284874955"
      },
      "geometry": {
        "type": "Point",
        "coordinates": [
          -61.85882487929163,
          -79.99818978059973
        ]
      }
    },
    {
      "type": "Feature",
      "properties": {
        "norad_id": 34521,
        "name": "IRIDIUM 33 DEB",
        "group": "iridium-33-debris",
        "lat": -2.0781177983687202,
        "lon": -155.13583203164754,
        "alt_km": 683.2553880006853,
        "timestamp": "2025-12-25T22:42:17.398414+00:00",
        "meta_object_name": "IRIDIUM 33 DEB",
        "meta_object_id": "1997-051HN",
        "meta_epoch": "2025-12-24T19:37:11.782272",
        "meta_mean_motion": 14.63462765,
        "meta_eccentricity": 0.00031171,
        "meta_inclination": 86.3786,
        "meta_ra_of_asc_node": 25.2294,
        "meta_arg_of_pericenter": 167.2726,
        "meta_mean_anomaly": 192.8565,
        "meta_ephemeris_type": 0,
        "meta_classification_type": "U",
        "meta_norad_cat_id": 34521,
        "meta_element_set_no": 999,
        "meta_rev_at_epoch": 88649,
        "meta_bstar": 0.00083071408,
        "meta_mean_motion_dot": 4.322e-05,
        "meta_mean_motion_ddot": 0,
        "tle_line1": "1 34521U 97051HN  25358.81749748  .00004322  00000+0  83071-3 0  9990",
        "tle_line2": "2 34521  86.3786  25.2294 0003117 167.2726 192.8565 14.63462765886497"
      },
      "geometry": {
        "type": "Point",
        "coordinates": [
          -155.13583203164754,
          -2.0781177983687202
        ]
      }
    },
    {
      "type": "Feature",
      "properties": {
        "norad_id": 34525,
        "name": "IRIDIUM 33 DEB",
        "group": "iridium-33-debris",
        "lat": 71.70467173135089,
        "lon": -149.85857797066413,
        "alt_km": 738.7891101000732,
        "timestamp": "2025-12-25T22:42:17.398425+00:00",
        "meta_object_name": "IRIDIUM 33 DEB",
        "meta_object_id": "1997-051HS",
        "meta_epoch": "2025-12-25T14:35:26.808288",
        "meta_mean_motion": 14.42935199,
        "meta_eccentricity": 0.0006208,
        "meta_inclination": 86.3716,
        "meta_ra_of_asc_node": 41.3505,
        "meta_arg_of_pericenter": 65.3879,
        "meta_mean_anomaly": 87.3835,
        "meta_ephemeris_type": 0,
        "meta_classification_type": "U",
        "meta_norad_cat_id": 34525,
        "meta_element_set_no": 999,
        "meta_rev_at_epoch": 88273,
        "meta_bstar": 0.0003487,
        "meta_mean_motion_dot": 1.185e-05,
        "meta_mean_motion_ddot": 0,
        "tle_line1": "1 34525U 97051HS  25359.60794917  .00001185  00000+0  34870-3 0  9997",
        "tle_line2": "2 34525  86.3716  41.3505 0006208  65.3879  87.3835 14.42935199882733"
      },
      "geometry": {
        "type": "Point",
        "coordinates": [
          -149.85857797066413,
          71.70467173135089
        ]
      }
    },
    {
      "type": "Feature",
      "properties": {
        "norad_id": 34529,
        "name": "IRIDIUM 33 DEB",
        "group": "iridium-33-debris",
        "lat": -73.19025189181805,
        "lon": -138.06431431587305,
        "alt_km": 765.6326817847994,
        "timestamp": "2025-12-25T22:42:17.398435+00:00",
        "meta_object_name": "IRIDIUM 33 DEB",
        "meta_object_id": "1997-051HW",
        "meta_epoch": "2025-12-25T13:11:48.680736",
        "meta_mean_motion": 14.40626161,
        "meta_eccentricity": 0.0006214,
        "meta_inclination": 86.3628,
        "meta_ra_of_asc_node": 29.95,
        "meta_arg_of_pericenter": 140.827,
        "meta_mean_anomaly": 219.338,
        "meta_ephemeris_type": 0,
        "meta_classification_type": "U",
        "meta_norad_cat_id": 34529,
        "meta_element_set_no": 999,
        "meta_rev_at_epoch": 88326,
        "meta_bstar": 0.00012953,
        "meta_mean_motion_dot": 4.33e-06,
        "meta_mean_motion_ddot": 0,
        "tle_line1": "1 34529U 97051HW  25359.54986899  .00000433  00000+0  12953-3 0  9999",
        "tle_line2": "2 34529  86.3628  29.9500 0006214 140.8270 219.3380 14.40626161883262"
      },
      "geometry": {
        "type": "Point",
        "coordinates": [
          -138.06431431587305,
          -73.19025189181805
        ]
      }
    },
    {
      "type": "Feature",
      "properties": {
        "norad_id": 34538,
        "name": "IRIDIUM 33 DEB",
        "group": "iridium-33-debris",
        "lat": -8.348099501445496,
        "lon": -179.68198950215364,
        "alt_km": 755.159320034043,
        "timestamp": "2025-12-25T22:42:17.398445+00:00",
        "meta_object_name": "IRIDIUM 33 DEB",
        "meta_object_id": "1997-051JF",
        "meta_epoch": "2025-12-24T17:48:32.243904",
        "meta_mean_motion": 14.42715706,
        "meta_eccentricity": 0.00319126,
        "meta_inclination": 86.2764,
        "meta_ra_of_asc_node": 0.2977,
        "meta_arg_of_pericenter": 286.3391,
        "meta_mean_anomaly": 132.9527,
        "meta_ephemeris_type": 0,
        "meta_classification_type": "U",
        "meta_norad_cat_id": 34538,
        "meta_element_set_no": 999,
        "meta_rev_at_epoch": 87929,
        "meta_bstar": 0.00092856968,
        "meta_mean_motion_dot": 3.127e-05,
        "meta_mean_motion_ddot": 0,
        "tle_line1": "1 34538U 97051JF  25358.74203986  .00003127  00000+0  92857-3 0  9993",
        "tle_line2": "2 34538  86.2764   0.2977 0031912 286.3391 132.9527 14.42715706879292"
      },
      "geometry": {
        "type": "Point",
        "coordinates": [
          -179.68198950215364,
          -8.348099501445496
        ]
      }
    },
    {
      "type": "Feature",
      "properties": {
        "norad_id": 34540,
        "name": "IRIDIUM 33 DEB",
        "group": "iridium-33-debris",
        "lat": 1.9010521432172816,
        "lon": -58.308679741195895,
        "alt_km": 651.2526410595201,
        "timestamp": "2025-12-25T22:42:17.398456+00:00",
        "meta_object_name": "IRIDIUM 33 DEB",
        "meta_object_id": "1997-051JH",
        "meta_epoch": "2025-12-25T15:06:19.054080",
        "meta_mean_motion": 14.75581418,
        "meta_eccentricity": 0.0018333,
        "meta_inclination": 86.3113,
        "meta_ra_of_asc_node": 301.7134,
        "meta_arg_of_pericenter": 116.628,
        "meta_mean_anomaly": 4.6289,
        "meta_ephemeris_type": 0,
        "meta_classification_type": "U",
        "meta_norad_cat_id": 34540,
        "meta_element_set_no": 999,
        "meta_rev_at_epoch": 89211,
        "meta_bstar": 0.0017256,
        "meta_mean_motion_dot": 0.00011827,
        "meta_mean_motion_ddot": 0,
        "tle_line1": "1 34540U 97051JH  25359.62938720  .00011827  00000+0  17256-2 0  9990",
        "tle_line2": "2 34540  86.3113 301.7134 0018333 116.6280   4.6289 14.75581418892115"
      },
      "geometry": {
        "type": "Point",
        "coordinates": [
          -58.308679741195895,
          1.9010521432172816
        ]
      }
    }
  ]
}